{
  "type": "FeatureCollection",
  "features": [
    {
      "type": "Feature",
      "properties": {
        "norad_id": 41866,
        "name": "GOES 16",
        "group": "weather",
        "lat": 0.04615377147374737,
        "lon": 151.34501456482866,
        "alt_km": 35791.16071567101,
        "timestamp": "2025-12-12T11:38:31.059160+00:00",
        "meta_object_name": "GOES 16",
        "meta_object_id": "2016-071A",
        "meta_epoch": "2025-12-12T03:38:38.555232",
        "meta_mean_motion": 1.00271517,
        "meta_eccentricity": 0.0003266,
        "meta_inclination": 0.0622,
        "meta_ra_of_asc_node": 106.0172,
        "meta_arg_of_pericenter": 156.6087,
        "meta_mean_anomaly": 128.4629,
        "meta_ephemeris_type": 0,
        "meta_classification_type": "U",
        "meta_norad_cat_id": 41866,
        "meta_element_set_no": 999,
        "meta_rev_at_epoch": 3322,
        "meta_bstar": 0,
        "meta_mean_motion_dot": -8.1e-07,
        "meta_mean_motion_ddot": 0,
        "tle_line1": "1 41866U 16071A   25346.15183513 -.00000081  00000+0  00000+0 0  9995",
        "tle_line2": "2 41866   0.0622 106.0172 0003266 156.6087 128.4629  1.00271517 33220"
      },
      "geometry": {
        "type": "Point",
        "coordinates": [
          151.34501456482866,
          0.04615377147374737
        ]
      }
    },
    {
      "type": "Feature",
      "properties": {
        "norad_id": 41882,
        "name": "FENGYUN 4A",
        "group": "weather",
        "lat": -1.6270612437457093,
        "lon": 19.927038173851322,
        "alt_km": 35805.02312051836,
        "timestamp": "2025-12-12T11:38:31.059172+00:00",
        "meta_object_name": "FENGYUN 4A",
        "meta_object_id": "2016-077A",
        "meta_epoch": "2025-12-11T22:39:37.492416",
        "meta_mean_motion": 1.0027003,
        "meta_eccentricity": 0.0004902,
        "meta_inclination": 1.8474,
        "meta_ra_of_asc_node": 82.3949,
        "meta_arg_of_pericenter": 146.0972,
        "meta_mean_anomaly": 316.1466,
        "meta_ephemeris_type": 0,
        "meta_classification_type": "U",
        "meta_norad_cat_id": 41882,
        "meta_element_set_no": 999,
        "meta_rev_at_epoch": 3305,
        "meta_bstar": 0,
        "meta_mean_motion_dot": -3.48e-06,
        "meta_mean_motion_ddot": 0,
        "tle_line1": "1 41882U 16077A   25345.94418394 -.00000348  00000+0  00000+0 0  9999",
        "tle_line2": "2 41882   1.8474  82.3949 0004902 146.0972 316.1466  1.00270030 33059"
      },
      "geometry": {
        "type": "Point",
        "coordinates": [
          19.927038173851322,
          -1.6270612437457093
        ]
      }
    },
    {
      "type": "Feature",
      "properties": {
        "norad_id": 41884,
        "name": "CYGFM05",
        "group": "weather",
        "lat": 11.834027625332453,
        "lon": 66.24610277300661,
        "alt_km": 427.23107499558046,
        "timestamp": "2025-12-12T11:38:31.059184+00:00",
        "meta_object_name": "CYGFM05",
        "meta_object_id": "2016-078A",
        "meta_epoch": "2025-12-11T12:19:44.236416",
        "meta_mean_motion": 15.47567747,
        "meta_eccentricity": 0.00099326,
        "meta_inclination": 34.9601,
        "meta_ra_of_asc_node": 55.1392,
        "meta_arg_of_pericenter": 172.194,
        "meta_mean_anomaly": 187.8938,
        "meta_ephemeris_type": 0,
        "meta_classification_type": "U",
        "meta_norad_cat_id": 41884,
        "meta_element_set_no": 999,
        "meta_rev_at_epoch": 49957,
        "meta_bstar": 0.00058459472,
        "meta_mean_motion_dot": 0.00031157,
        "meta_mean_motion_ddot": 0,
        "tle_line1": "1 41884U 16078A   25345.51370644  .00031157  00000+0  58459-3 0  9996",
        "tle_line2": "2 41884  34.9601  55.1392 0009932 172.1940 187.8938 15.47567747499573"
      },
      "geometry": {
        "type": "Point",
        "coordinates": [
          66.24610277300661,
          11.834027625332453
        ]
      }
    },
    {
      "type": "Feature",
      "properties": {
        "norad_id": 41885,
        "name": "CYGFM04",
        "group": "weather",
        "lat": -34.04789385689239,
        "lon": -80.9442779682867,
        "alt_km": 413.6431608433668,
        "timestamp": "2025-12-12T11:38:31.059195+00:00",
        "meta_object_name": "CYGFM04",
        "meta_object_id": "2016-078B",
        "meta_epoch": "2025-12-12T04:21:11.143008",
        "meta_mean_motion": 15.50317395,
        "meta_eccentricity": 0.0009415,
        "meta_inclination": 34.9354,
        "meta_ra_of_asc_node": 25.5711,
        "meta_arg_of_pericenter": 205.7202,
        "meta_mean_anomaly": 154.3053,
        "meta_ephemeris_type": 0,
        "meta_classification_type": "U",
        "meta_norad_cat_id": 41885,
        "meta_element_set_no": 999,
        "meta_rev_at_epoch": 49985,
        "meta_bstar": 0.00048803,
        "meta_mean_motion_dot": 0.00028639,
        "meta_mean_motion_ddot": 0,
        "tle_line1": "1 41885U 16078B   25346.18137897  .00028639  00000+0  48803-3 0  9995",
        "tle_line2": "2 41885  34.9354  25.5711 0009415 205.7202 154.3053 15.50317395499859"
      },
      "geometry": {
        "type": "Point",
        "coordinates": [
          -80.9442779682867,
          -34.04789385689239
        ]
      }
    },
    {
      "type": "Feature",
      "properties": {
        "norad_id": 41886,
        "name": "CYGFM02",
        "group": "weather",
        "lat": -34.92486612857331,
        "lon": -68.35238117084275,
        "alt_km": 410.2384736762406,
        "timestamp": "2025-12-12T11:38:31.059223+00:00",
        "meta_object_name": "CYGFM02",
        "meta_object_id": "2016-078C",
        "meta_epoch": "2025-12-12T04:18:32.700096",
        "meta_mean_motion": 15.5169395,
        "meta_eccentricity": 0.0011072,
        "meta_inclination": 34.9444,
        "meta_ra_of_asc_node": 23.9168,
        "meta_arg_of_pericenter": 205.4105,
        "meta_mean_anomaly": 154.6074,
        "meta_ephemeris_type": 0,
        "meta_classification_type": "U",
        "meta_norad_cat_id": 41886,
        "meta_element_set_no": 999,
        "meta_rev_at_epoch": 49998,
        "meta_bstar": 0.00049312,
        "meta_mean_motion_dot": 0.0003043,
        "meta_mean_motion_ddot": 0,
        "tle_line1": "1 41886U 16078C   25346.17954514  .00030430  00000+0  49312-3 0  9996",
        "tle_line2": "2 41886  34.9444  23.9168 0011072 205.4105 154.6074 15.51693950499984"
      },
      "geometry": {
        "type": "Point",
        "coordinates": [
          -68.35238117084275,
          -34.92486612857331
        ]
      }
    },
    {
      "type": "Feature",
      "properties": {
        "norad_id": 41887,
        "name": "CYGFM01",
        "group": "weather",
        "lat": 31.144276130083565,
        "lon": 111.08161422929943,
        "alt_km": 418.1918830825143,
        "timestamp": "2025-12-12T11:38:31.059238+00:00",
        "meta_object_name": "CYGFM01",
        "meta_object_id": "2016-078D",
        "meta_epoch": "2025-12-11T13:41:51.415008",
        "meta_mean_motion": 15.48145499,
        "meta_eccentricity": 0.0009499,
        "meta_inclination": 34.9432,
        "meta_ra_of_asc_node": 57.1248,
        "meta_arg_of_pericenter": 164.4483,
        "meta_mean_anomaly": 195.6532,
        "meta_ephemeris_type": 0,
        "meta_classification_type": "U",
        "meta_norad_cat_id": 41887,
        "meta_element_set_no": 999,
        "meta_rev_at_epoch": 49952,
        "meta_bstar": 0.00051764,
        "meta_mean_motion_dot": 0.00028132,
        "meta_mean_motion_ddot": 0,
        "tle_line1": "1 41887U 16078D   25345.57073397  .00028132  00000+0  51764-3 0  9991",
        "tle_line2": "2 41887  34.9432  57.1248 0009499 164.4483 195.6532 15.48145499499523"
      },
      "geometry": {
        "type": "Point",
        "coordinates": [
          111.08161422929943,
          31.144276130083565
        ]
      }
    },
    {
      "type": "Feature",
      "properties": {
        "norad_id": 41888,
        "name": "CYGFM08",
        "group": "weather",
        "lat": 32.0801267602489,
        "lon": 150.29483797255963,
        "alt_km": 411.83386698204686,
        "timestamp": "2025-12-12T11:38:31.059250+00:00",
        "meta_object_name": "CYGFM08",
        "meta_object_id": "2016-078E",
        "meta_epoch": "2025-12-12T03:25:44.261760",
        "meta_mean_motion": 15.4938026,
        "meta_eccentricity": 0.0011476,
        "meta_inclination": 34.9463,
        "meta_ra_of_asc_node": 36.3827,
        "meta_arg_of_pericenter": 193.9112,
        "meta_mean_anomaly": 166.1295,
        "meta_ephemeris_type": 0,
        "meta_classification_type": "U",
        "meta_norad_cat_id": 41888,
        "meta_element_set_no": 999,
        "meta_rev_at_epoch": 49984,
        "meta_bstar": 0.00048918,
        "meta_mean_motion_dot": 0.00027787,
        "meta_mean_motion_ddot": 0,
        "tle_line1": "1 41888U 16078E   25346.14287340  .00027787  00000+0  48918-3 0  9993",
        "tle_line2": "2 41888  34.9463  36.3827 0011476 193.9112 166.1295 15.49380260499846"
      },
      "geometry": {
        "type": "Point",
        "coordinates": [
          150.29483797255963,
          32.0801267602489
        ]
      }
    }
  ]
}